[
    {
        "Altitude(m)": 617719.7543744926,
        "Argument of Periapsis(deg)": 0.0,
        "Eccentricity": 0.0,
        "Inclination(deg)": 60.0,
        "Latitude(deg)": -41.102595251126104,
        "Longitude(deg)": 10.094723508156198,
        "Mean Anomaly(deg)": -130.90909999999997,
        "RAAN(deg)": 260.0,
        "Satellite Name": "Test1 1158",
        "Satellite Number": 1158,
        "Semi-Major Axis(m)": 6980739.136638005,
        "Time(s)": 0
    },
    {
        "Altitude(m)": 617911.2899575563,
        "Argument of Periapsis(deg)": 0.00010418945913296404,
        "Eccentricity": 0.0,
        "Inclination(deg)": 60.0,
        "Latitude(deg)": -41.56578645588273,
        "Longitude(deg)": 10.59913096293198,
        "Mean Anomaly(deg)": -130.2889938545382,
        "RAAN(deg)": 259.99957995086027,
        "Satellite Name": "Test1 1158",
        "Satellite Number": 1158,
        "Semi-Major Axis(m)": 6980739.136638005,
        "Time(s)": 10
    },
    {
        "Altitude(m)": 618101.7003144099,
        "Argument of Periapsis(deg)": 0.0002083789182659281,
        "Eccentricity": 0.0,
        "Inclination(deg)": 60.0,
        "Latitude(deg)": -42.02629914805476,
        "Longitude(deg)": 11.111345788891553,
        "Mean Anomaly(deg)": -129.66888770907636,
        "RAAN(deg)": 259.9991599017205,
        "Satellite Name": "Test1 1158",
        "Satellite Number": 1158,
        "Semi-Major Axis(m)": 6980739.136638005,
        "Time(s)": 20
    },
    {
        "Altitude(m)": 618290.91241787,
        "Argument of Periapsis(deg)": 0.00031256837739889213,
        "Eccentricity": 0.0,
        "Inclination(deg)": 60.0,
        "Latitude(deg)": -42.484053080810476,
        "Longitude(deg)": 11.631562670212677,
        "Mean Anomaly(deg)": -129.04878156361454,
        "RAAN(deg)": 259.9987398525808,
        "Satellite Name": "Test1 1158",
        "Satellite Number": 1158,
        "Semi-Major Axis(m)": 6980739.136638005,
        "Time(s)": 30
    },
    {
        "Altitude(m)": 618478.8536179765,
        "Argument of Periapsis(deg)": 0.0004167578365318562,
        "Eccentricity": 0.0,
        "Inclination(deg)": 60.0,
        "Latitude(deg)": -42.93896548227164,
        "Longitude(deg)": 12.159980084671526,
        "Mean Anomaly(deg)": -128.4286754181527,
        "RAAN(deg)": 259.998319803441,
        "Satellite Name": "Test1 1158",
        "Satellite Number": 1158,
        "Semi-Major Axis(m)": 6980739.136638005,
        "Time(s)": 40
    },
    {
        "Altitude(m)": 618665.4516736295,
        "Argument of Periapsis(deg)": 0.0005209472956648203,
        "Eccentricity": 0.0,
        "Inclination(deg)": 60.0,
        "Latitude(deg)": -43.39095097740328,
        "Longitude(deg)": 12.696799205723162,
        "Mean Anomaly(deg)": -127.80856927269083,
        "RAAN(deg)": 259.9978997543013,
        "Satellite Name": "Test1 1158",
        "Satellite Number": 1158,
        "Semi-Major Axis(m)": 6980739.136638005,
        "Time(s)": 50
    },
    {
        "Altitude(m)": 618850.6347840468,
        "Argument of Periapsis(deg)": 0.0006251367547977843,
        "Eccentricity": 0.0,
        "Inclination(deg)": 60.0,
        "Latitude(deg)": -43.8399215092602,
        "Longitude(deg)": 13.24222429770346,
        "Mean Anomaly(deg)": -127.18846312722899,
        "RAAN(deg)": 259.99747970516154,
        "Satellite Name": "Test1 1158",
        "Satellite Number": 1158,
        "Semi-Major Axis(m)": 6980739.136638005,
        "Time(s)": 60
    },
    {
        "Altitude(m)": 619034.3316200086,
        "Argument of Periapsis(deg)": 0.0007293262139307483,
        "Eccentricity": 0.0,
        "Inclination(deg)": 60.0,
        "Latitude(deg)": -44.285786259824505,
        "Longitude(deg)": 13.796463089414106,
        "Mean Anomaly(deg)": -126.56835698176718,
        "RAAN(deg)": 259.9970596560218,
        "Satellite Name": "Test1 1158",
        "Satellite Number": 1158,
        "Semi-Major Axis(m)": 6980739.136638005,
        "Time(s)": 70
    },
    {
        "Altitude(m)": 619216.4713548457,
        "Argument of Periapsis(deg)": 0.0008335156730637124,
        "Eccentricity": 0.0,
        "Inclination(deg)": 60.0,
        "Latitude(deg)": -44.728451570703434,
        "Longitude(deg)": 14.35972561123022,
        "Mean Anomaly(deg)": -125.94825083630533,
        "RAAN(deg)": 259.99663960688207,
        "Satellite Name": "Test1 1158",
        "Satellite Number": 1158,
        "Semi-Major Axis(m)": 6980739.136638005,
        "Time(s)": 80
    },
    {
        "Altitude(m)": 619396.9836952221,
        "Argument of Periapsis(deg)": 0.0009377051321966765,
        "Eccentricity": 0.0,
        "Inclination(deg)": 60.0,
        "Latitude(deg)": -45.16782086398396,
        "Longitude(deg)": 14.932224519371834,
        "Mean Anomaly(deg)": -125.32814469084347,
        "RAAN(deg)": 259.99621955774234,
        "Satellite Name": "Test1 1158",
        "Satellite Number": 1158,
        "Semi-Major Axis(m)": 6980739.136638005,
        "Time(s)": 90
    },
    {
        "Altitude(m)": 619575.7989116306,
        "Argument of Periapsis(deg)": 0.0010418945913296407,
        "Eccentricity": 0.0,
        "Inclination(deg)": 60.0,
        "Latitude(deg)": -45.603794563589595,
        "Longitude(deg)": 15.514175392240979,
        "Mean Anomaly(deg)": -124.70803854538163,
        "RAAN(deg)": 259.99579950860254,
        "Satellite Name": "Test1 1158",
        "Satellite Number": 1158,
        "Semi-Major Axis(m)": 6980739.136638005,
        "Time(s)": 100
    },
    {
        "Altitude(m)": 619752.8478686259,
        "Argument of Periapsis(deg)": 0.0011460840504626045,
        "Eccentricity": 0.0,
        "Inclination(deg)": 60.0,
        "Latitude(deg)": -46.03627001752669,
        "Longitude(deg)": 16.105795483607977,
        "Mean Anomaly(deg)": -124.08793239991982,
        "RAAN(deg)": 259.99537945946287,
        "Satellite Name": "Test1 1158",
        "Satellite Number": 1158,
        "Semi-Major Axis(m)": 6980739.136638005,
        "Time(s)": 110
    },
    {
        "Altitude(m)": 619928.062054788,
        "Argument of Periapsis(deg)": 0.0012502735095955685,
        "Eccentricity": 0.0,
        "Inclination(deg)": 60.0,
        "Latitude(deg)": -46.46514142144675,
        "Longitude(deg)": 16.707303955937274,
        "Mean Anomaly(deg)": -123.46782625445798,
        "RAAN(deg)": 259.9949594103231,
        "Satellite Name": "Test1 1158",
        "Satellite Number": 1158,
        "Semi-Major Axis(m)": 6980739.136638005,
        "Time(s)": 120
    },
    {
        "Altitude(m)": 620101.3736123705,
        "Argument of Periapsis(deg)": 0.0013544629687285324,
        "Eccentricity": 0.0,
        "Inclination(deg)": 60.0,
        "Latitude(deg)": -46.89029974400858,
        "Longitude(deg)": 17.318922078415156,
        "Mean Anomaly(deg)": -122.84772010899611,
        "RAAN(deg)": 259.99453936118334,
        "Satellite Name": "Test1 1158",
        "Satellite Number": 1158,
        "Semi-Major Axis(m)": 6980739.136638005,
        "Time(s)": 130
    },
    {
        "Altitude(m)": 620272.7153666734,
        "Argument of Periapsis(deg)": 0.0014586524278614966,
        "Eccentricity": 0.0,
        "Inclination(deg)": 60.0,
        "Latitude(deg)": -47.31163265457796,
        "Longitude(deg)": 17.940871874143717,
        "Mean Anomaly(deg)": -122.22761396353437,
        "RAAN(deg)": 259.9941193120436,
        "Satellite Name": "Test1 1158",
        "Satellite Number": 1158,
        "Semi-Major Axis(m)": 6980739.136638005,
        "Time(s)": 140
    },
    {
        "Altitude(m)": 620442.020855042,
        "Argument of Periapsis(deg)": 0.0015628418869944607,
        "Eccentricity": 0.0,
        "Inclination(deg)": 60.0,
        "Latitude(deg)": -47.72902445385277,
        "Longitude(deg)": 18.573376239498298,
        "Mean Anomaly(deg)": -121.60750781807246,
        "RAAN(deg)": 259.9936992629039,
        "Satellite Name": "Test1 1158",
        "Satellite Number": 1158,
        "Semi-Major Axis(m)": 6980739.136638005,
        "Time(s)": 150
    },
    {
        "Altitude(m)": 620609.2243556064,
        "Argument of Periapsis(deg)": 0.0016670313461274247,
        "Eccentricity": 0.0,
        "Inclination(deg)": 60.0,
        "Latitude(deg)": -48.142356008066095,
        "Longitude(deg)": 19.216659019948356,
        "Mean Anomaly(deg)": -120.98740167261072,
        "RAAN(deg)": 259.99327921376414,
        "Satellite Name": "Test1 1158",
        "Satellite Number": 1158,
        "Semi-Major Axis(m)": 6980739.136638005,
        "Time(s)": 160
    },
    {
        "Altitude(m)": 620774.2609156121,
        "Argument of Periapsis(deg)": 0.0017712208052603888,
        "Eccentricity": 0.0,
        "Inclination(deg)": 60.0,
        "Latitude(deg)": -48.55150468749078,
        "Longitude(deg)": 19.87094352660294,
        "Mean Anomaly(deg)": -120.36729552714885,
        "RAAN(deg)": 259.9928591646244,
        "Satellite Name": "Test1 1158",
        "Satellite Number": 1158,
        "Semi-Major Axis(m)": 6980739.136638005,
        "Time(s)": 170
    },
    {
        "Altitude(m)": 620937.0663794366,
        "Argument of Periapsis(deg)": 0.001875410264393353,
        "Eccentricity": 0.0,
        "Inclination(deg)": 60.0,
        "Latitude(deg)": -48.956344310020086,
        "Longitude(deg)": 20.536452516312053,
        "Mean Anomaly(deg)": -119.74718938168711,
        "RAAN(deg)": 259.9924391154846,
        "Satellite Name": "Test1 1158",
        "Satellite Number": 1158,
        "Semi-Major Axis(m)": 6980739.136638005,
        "Time(s)": 180
    },
    {
        "Altitude(m)": 621097.5774162291,
        "Argument of Periapsis(deg)": 0.0019795997235263173,
        "Eccentricity": 0.0,
        "Inclination(deg)": 60.0,
        "Latitude(deg)": -49.35674509068453,
        "Longitude(deg)": 21.213408119556114,
        "Mean Anomaly(deg)": -119.1270832362252,
        "RAAN(deg)": 259.99201906634494,
        "Satellite Name": "Test1 1158",
        "Satellite Number": 1158,
        "Semi-Major Axis(m)": 6980739.136638005,
        "Time(s)": 190
    }
]